<?xml version="1.0" encoding="UTF-8"?>
<ndm xmlns:xsi="http://www.w3.org/2001/XMLSchema-instance" xsi:noNamespaceSchemaLocation="https://sanaregistry.org/r/ndmxml_unqualified/ndmxml-2.0.0-master-2.0.xsd">
<omm id="CCSDS_OMM_VERS" version="2.0">
<header><CREATION_DATE/><ORIGINATOR/></header><body><segment><metadata><OBJECT_NAME>ORBCOMM FM24</OBJECT_NAME><OBJECT_ID>1998-053D</OBJECT_ID><CENTER_NAME>EARTH</CENTER_NAME><REF_FRAME>TEME</REF_FRAME><TIME_SYSTEM>UTC</TIME_SYSTEM><MEAN_ELEMENT_THEORY>SGP4</MEAN_ELEMENT_THEORY></metadata><data><meanElements><EPOCH>2025-10-04T13:44:10.343616</EPOCH><MEAN_MOTION>14.38380515</MEAN_MOTION><ECCENTRICITY>.0002662</ECCENTRICITY><INCLINATION>45.0059</INCLINATION><RA_OF_ASC_NODE>110.3576</RA_OF_ASC_NODE><ARG_OF_PERICENTER>68.2384</ARG_OF_PERICENTER><MEAN_ANOMALY>291.8747</MEAN_ANOMALY></meanElements><tleParameters><EPHEMERIS_TYPE>0</EPHEMERIS_TYPE><CLASSIFICATION_TYPE>U</CLASSIFICATION_TYPE><NORAD_CAT_ID>25478</NORAD_CAT_ID><ELEMENT_SET_NO>999</ELEMENT_SET_NO><REV_AT_EPOCH>41319</REV_AT_EPOCH><BSTAR>.77691E-3</BSTAR><MEAN_MOTION_DOT>.2248E-4</MEAN_MOTION_DOT><MEAN_MOTION_DDOT>0</MEAN_MOTION_DDOT></tleParameters></data></segment></body></omm>
<omm id="CCSDS_OMM_VERS" version="2.0">
<header><CREATION_DATE/><ORIGINATOR/></header><body><segment><metadata><OBJECT_NAME>ORBCOMM FM25</OBJECT_NAME><OBJECT_ID>1998-053E</OBJECT_ID><CENTER_NAME>EARTH</CENTER_NAME><REF_FRAME>TEME</REF_FRAME><TIME_SYSTEM>UTC</TIME_SYSTEM><MEAN_ELEMENT_THEORY>SGP4</MEAN_ELEMENT_THEORY></metadata><data><meanElements><EPOCH>2025-10-04T19:46:11.072064</EPOCH><MEAN_MOTION>14.38350529</MEAN_MOTION><ECCENTRICITY>.0004993</ECCENTRICITY><INCLINATION>45.0050</INCLINATION><RA_OF_ASC_NODE>107.4519</RA_OF_ASC_NODE><ARG_OF_PERICENTER>78.2697</ARG_OF_PERICENTER><MEAN_ANOMALY>281.8711</MEAN_ANOMALY></meanElements><tleParameters><EPHEMERIS_TYPE>0</EPHEMERIS_TYPE><CLASSIFICATION_TYPE>U</CLASSIFICATION_TYPE><NORAD_CAT_ID>25479</NORAD_CAT_ID><ELEMENT_SET_NO>999</ELEMENT_SET_NO><REV_AT_EPOCH>41352</REV_AT_EPOCH><BSTAR>.76874E-3</BSTAR><MEAN_MOTION_DOT>.2222E-4</MEAN_MOTION_DOT><MEAN_MOTION_DDOT>0</MEAN_MOTION_DDOT></tleParameters></data></segment></body></omm>
<omm id="CCSDS_OMM_VERS" version="2.0">
<header><CREATION_DATE/><ORIGINATOR/></header><body><segment><metadata><OBJECT_NAME>ORBCOMM FM26</OBJECT_NAME><OBJECT_ID>1998-053F</OBJECT_ID><CENTER_NAME>EARTH</CENTER_NAME><REF_FRAME>TEME</REF_FRAME><TIME_SYSTEM>UTC</TIME_SYSTEM><MEAN_ELEMENT_THEORY>SGP4</MEAN_ELEMENT_THEORY></metadata><data><meanElements><EPOCH>2025-10-04T20:07:52.148064</EPOCH><MEAN_MOTION>14.37368291</MEAN_MOTION><ECCENTRICITY>.0006793</ECCENTRICITY><INCLINATION>45.0049</INCLINATION><RA_OF_ASC_NODE>104.6420</RA_OF_ASC_NODE><ARG_OF_PERICENTER>94.2212</ARG_OF_PERICENTER><MEAN_ANOMALY>265.9412</MEAN_ANOMALY></meanElements><tleParameters><EPHEMERIS_TYPE>0</EPHEMERIS_TYPE><CLASSIFICATION_TYPE>U</CLASSIFICATION_TYPE><NORAD_CAT_ID>25480</NORAD_CAT_ID><ELEMENT_SET_NO>999</ELEMENT_SET_NO><REV_AT_EPOCH>41342</REV_AT_EPOCH><BSTAR>.64942E-3</BSTAR><MEAN_MOTION_DOT>.1816E-4</MEAN_MOTION_DOT><MEAN_MOTION_DDOT>0</MEAN_MOTION_DDOT></tleParameters></data></segment></body></omm>
<omm id="CCSDS_OMM_VERS" version="2.0">
<header><CREATION_DATE/><ORIGINATOR/></header><body><segment><metadata><OBJECT_NAME>ORBCOMM FM27</OBJECT_NAME><OBJECT_ID>1998-053G</OBJECT_ID><CENTER_NAME>EARTH</CENTER_NAME><REF_FRAME>TEME</REF_FRAME><TIME_SYSTEM>UTC</TIME_SYSTEM><MEAN_ELEMENT_THEORY>SGP4</MEAN_ELEMENT_THEORY></metadata><data><meanElements><EPOCH>2025-10-04T19:24:57.898080</EPOCH><MEAN_MOTION>14.38385649</MEAN_MOTION><ECCENTRICITY>.000129</ECCENTRICITY><INCLINATION>45.0036</INCLINATION><RA_OF_ASC_NODE>107.6832</RA_OF_ASC_NODE><ARG_OF_PERICENTER>88.5104</ARG_OF_PERICENTER><MEAN_ANOMALY>271.5892</MEAN_ANOMALY></meanElements><tleParameters><EPHEMERIS_TYPE>0</EPHEMERIS_TYPE><CLASSIFICATION_TYPE>U</CLASSIFICATION_TYPE><NORAD_CAT_ID>25481</NORAD_CAT_ID><ELEMENT_SET_NO>999</ELEMENT_SET_NO><REV_AT_EPOCH>41345</REV_AT_EPOCH><BSTAR>.75168E-3</BSTAR><MEAN_MOTION_DOT>.2171E-4</MEAN_MOTION_DOT><MEAN_MOTION_DDOT>0</MEAN_MOTION_DDOT></tleParameters></data></segment></body></omm>
<omm id="CCSDS_OMM_VERS" version="2.0">
<header><CREATION_DATE/><ORIGINATOR/></header><body><segment><metadata><OBJECT_NAME>ORBCOMM FM28</OBJECT_NAME><OBJECT_ID>1998-053H</OBJECT_ID><CENTER_NAME>EARTH</CENTER_NAME><REF_FRAME>TEME</REF_FRAME><TIME_SYSTEM>UTC</TIME_SYSTEM><MEAN_ELEMENT_THEORY>SGP4</MEAN_ELEMENT_THEORY></metadata><data><meanElements><EPOCH>2025-10-03T15:39:49.897440</EPOCH><MEAN_MOTION>14.38539065</MEAN_MOTION><ECCENTRICITY>.00051719</ECCENTRICITY><INCLINATION>45.0056</INCLINATION><RA_OF_ASC_NODE>50.5218</RA_OF_ASC_NODE><ARG_OF_PERICENTER>137.0293</ARG_OF_PERICENTER><MEAN_ANOMALY>223.0960</MEAN_ANOMALY></meanElements><tleParameters><EPHEMERIS_TYPE>0</EPHEMERIS_TYPE><CLASSIFICATION_TYPE>U</CLASSIFICATION_TYPE><NORAD_CAT_ID>25482</NORAD_CAT_ID><ELEMENT_SET_NO>999</ELEMENT_SET_NO><REV_AT_EPOCH>41397</REV_AT_EPOCH><BSTAR>.91566464E-3</BSTAR><MEAN_MOTION_DOT>.2685E-4</MEAN_MOTION_DOT><MEAN_MOTION_DDOT>0</MEAN_MOTION_DDOT></tleParameters></data></segment></body></omm>
<omm id="CCSDS_OMM_VERS" version="2.0">
<header><CREATION_DATE/><ORIGINATOR/></header><body><segment><metadata><OBJECT_NAME>ORBCOMM FM30</OBJECT_NAME><OBJECT_ID>1999-065A</OBJECT_ID><CENTER_NAME>EARTH</CENTER_NAME><REF_FRAME>TEME</REF_FRAME><TIME_SYSTEM>UTC</TIME_SYSTEM><MEAN_ELEMENT_THEORY>SGP4</MEAN_ELEMENT_THEORY></metadata><data><meanElements><EPOCH>2025-10-04T17:55:13.679904</EPOCH><MEAN_MOTION>14.37536813</MEAN_MOTION><ECCENTRICITY>.0007445</ECCENTRICITY><INCLINATION>45.0308</INCLINATION><RA_OF_ASC_NODE>291.0550</RA_OF_ASC_NODE><ARG_OF_PERICENTER>216.6230</ARG_OF_PERICENTER><MEAN_ANOMALY>143.4110</MEAN_ANOMALY></meanElements><tleParameters><EPHEMERIS_TYPE>0</EPHEMERIS_TYPE><CLASSIFICATION_TYPE>U</CLASSIFICATION_TYPE><NORAD_CAT_ID>25980</NORAD_CAT_ID><ELEMENT_SET_NO>999</ELEMENT_SET_NO><REV_AT_EPOCH>35021</REV_AT_EPOCH><BSTAR>.66251E-3</BSTAR><MEAN_MOTION_DOT>.1862E-4</MEAN_MOTION_DOT><MEAN_MOTION_DDOT>0</MEAN_MOTION_DDOT></tleParameters></data></segment></body></omm>
<omm id="CCSDS_OMM_VERS" version="2.0">
<header><CREATION_DATE/><ORIGINATOR/></header><body><segment><metadata><OBJECT_NAME>ORBCOMM FM31</OBJECT_NAME><OBJECT_ID>1999-065B</OBJECT_ID><CENTER_NAME>EARTH</CENTER_NAME><REF_FRAME>TEME</REF_FRAME><TIME_SYSTEM>UTC</TIME_SYSTEM><MEAN_ELEMENT_THEORY>SGP4</MEAN_ELEMENT_THEORY></metadata><data><meanElements><EPOCH>2025-10-03T11:22:23.263104</EPOCH><MEAN_MOTION>14.37460556</MEAN_MOTION><ECCENTRICITY>.00056438</ECCENTRICITY><INCLINATION>45.0221</INCLINATION><RA_OF_ASC_NODE>290.5473</RA_OF_ASC_NODE><ARG_OF_PERICENTER>238.4511</ARG_OF_PERICENTER><MEAN_ANOMALY>121.5786</MEAN_ANOMALY></meanElements><tleParameters><EPHEMERIS_TYPE>0</EPHEMERIS_TYPE><CLASSIFICATION_TYPE>U</CLASSIFICATION_TYPE><NORAD_CAT_ID>25981</NORAD_CAT_ID><ELEMENT_SET_NO>999</ELEMENT_SET_NO><REV_AT_EPOCH>34958</REV_AT_EPOCH><BSTAR>.81264402E-3</BSTAR><MEAN_MOTION_DOT>.2313E-4</MEAN_MOTION_DOT><MEAN_MOTION_DDOT>0</MEAN_MOTION_DDOT></tleParameters></data></segment></body></omm>
<omm id="CCSDS_OMM_VERS" version="2.0">
<header><CREATION_DATE/><ORIGINATOR/></header><body><segment><metadata><OBJECT_NAME>ORBCOMM FM32</OBJECT_NAME><OBJECT_ID>1999-065C</OBJECT_ID><CENTER_NAME>EARTH</CENTER_NAME><REF_FRAME>TEME</REF_FRAME><TIME_SYSTEM>UTC</TIME_SYSTEM><MEAN_ELEMENT_THEORY>SGP4</MEAN_ELEMENT_THEORY></metadata><data><meanElements><EPOCH>2025-10-04T18:35:04.995168</EPOCH><MEAN_MOTION>14.36521973</MEAN_MOTION><ECCENTRICITY>.0008016</ECCENTRICITY><INCLINATION>45.0152</INCLINATION><RA_OF_ASC_NODE>301.7024</RA_OF_ASC_NODE><ARG_OF_PERICENTER>232.2581</ARG_OF_PERICENTER><MEAN_ANOMALY>127.7541</MEAN_ANOMALY></meanElements><tleParameters><EPHEMERIS_TYPE>0</EPHEMERIS_TYPE><CLASSIFICATION_TYPE>U</CLASSIFICATION_TYPE><NORAD_CAT_ID>25982</NORAD_CAT_ID><ELEMENT_SET_NO>999</ELEMENT_SET_NO><REV_AT_EPOCH>35035</REV_AT_EPOCH><BSTAR>.6717E-3</BSTAR><MEAN_MOTION_DOT>.185E-4</MEAN_MOTION_DOT><MEAN_MOTION_DDOT>0</MEAN_MOTION_DDOT></tleParameters></data></segment></body></omm>

</ndm>
