ORBCOMM FM24            
1 25478U 98053D   25277.57234194  .00002248  00000+0  77691-3 0  9997
2 25478  45.0059 110.3576 0002662  68.2384 291.8747 14.38380515413195
ORBCOMM FM25            
1 25479U 98053E   25277.82373926  .00002222  00000+0  76874-3 0  9997
2 25479  45.0050 107.4519 0004993  78.2697 281.8711 14.38350529413527
ORBCOMM FM26            
1 25480U 98053F   25277.83879801  .00001816  00000+0  64942-3 0  9994
2 25480  45.0049 104.6420 0006793  94.2212 265.9412 14.37368291413422
ORBCOMM FM27            
1 25481U 98053G   25277.80900345  .00002171  00000+0  75168-3 0  9997
2 25481  45.0036 107.6832 0001290  88.5104 271.5892 14.38385649413457
ORBCOMM FM28            
1 25482U 98053H   25276.65266085  .00002685  00000+0  91566-3 0  9996
2 25482  45.0056  50.5218 0005171 137.0293 223.0960 14.38539065413973
ORBCOMM FM30            
1 25980U 99065A   25277.74668611  .00001862  00000+0  66251-3 0  9994
2 25980  45.0308 291.0550 0007445 216.6230 143.4110 14.37536813350214
ORBCOMM FM31            
1 25981U 99065B   25276.47388036  .00002313  00000+0  81264-3 0  9997
2 25981  45.0221 290.5473 0005643 238.4511 121.5786 14.37460556349583
ORBCOMM FM32            
1 25982U 99065C   25277.77436337  .00001850  00000+0  67170-3 0  9995
2 25982  45.0152 301.7024 0008016 232.2581 127.7541 14.36521973350354
